{
  "norad_id": 63203,
  "name": "STARLINK-32930",
  "history": [
    {
      "epoch": "2026-03-28T17:55:39.809856Z",
      "apogee_km": 483.2439111569456,
      "perigee_km": 482.5440859950904,
      "latitude_deg": 2.820499515060946e-05,
      "longitude_deg": -117.12234569193173,
      "height_km": 482.4611540595342,
      "semi_major_axis_km": 6861.030998576018,
      "eccentricity": 5.1e-05,
      "inclination_deg": 43.0022,
      "raan_deg": 337.9565,
      "arg_perigee_deg": 53.5097,
      "mean_anomaly_deg": 306.5802,
      "mean_motion_rev_day": 15.27631798
    },
    {
      "epoch": "2026-03-29T01:46:26.052960Z",
      "apogee_km": 484.01966882352554,
      "perigee_km": 481.872149872901,
      "latitude_deg": 3.712739037349243e-05,
      "longitude_deg": 123.01675305307357,
      "height_km": 482.68060195808533,
      "semi_major_axis_km": 6861.082909348213,
      "eccentricity": 0.0001565,
      "inclination_deg": 43.0034,
      "raan_deg": 336.1105,
      "arg_perigee_deg": 272.2695,
      "mean_anomaly_deg": 87.7978,
      "mean_motion_rev_day": 15.27614461
    },
    {
      "epoch": "2026-03-30T01:18:45.952128Z",
      "apogee_km": 484.1692167871779,
      "perigee_km": 481.90118770400386,
      "latitude_deg": 3.3368660692615915e-05,
      "longitude_deg": 123.42772971346248,
      "height_km": 483.05042579193105,
      "semi_major_axis_km": 6861.172202245591,
      "eccentricity": 0.00016528,
      "inclination_deg": 43.003,
      "raan_deg": 330.5711,
      "arg_perigee_deg": 257.8825,
      "mean_anomaly_deg": 102.1842,
      "mean_motion_rev_day": 15.2758464
    },
    {
      "epoch": "2026-03-30T09:09:33.512832Z",
      "apogee_km": 483.95064124686905,
      "perigee_km": 482.2336872608057,
      "latitude_deg": 4.978327982984383e-06,
      "longitude_deg": 3.560784080020342,
      "height_km": 482.95100682411993,
      "semi_major_axis_km": 6861.229164253837,
      "eccentricity": 0.00012512,
      "inclination_deg": 43.0027,
      "raan_deg": 328.7246,
      "arg_perigee_deg": 264.5202,
      "mean_anomaly_deg": 95.5507,
      "mean_motion_rev_day": 15.27565617
    },
    {
      "epoch": "2026-03-30T17:00:21.351744Z",
      "apogee_km": 483.9401908583959,
      "perigee_km": 482.3283410126014,
      "latitude_deg": -8.863773364795417e-06,
      "longitude_deg": -116.30710841425622,
      "height_km": 483.0131532186712,
      "semi_major_axis_km": 6861.271265935498,
      "eccentricity": 0.00011746,
      "inclination_deg": 43.0024,
      "raan_deg": 326.8783,
      "arg_perigee_deg": 262.7199,
      "mean_anomaly_deg": 97.3519,
      "mean_motion_rev_day": 15.27551557
    },
    {
      "epoch": "2026-03-31T00:51:08.661888Z",
      "apogee_km": 484.02241931003664,
      "perigee_km": 482.15918428817986,
      "latitude_deg": -2.4636450220038076e-05,
      "longitude_deg": 123.82790627421318,
      "height_km": 482.9875011755726,
      "semi_major_axis_km": 6861.227801799108,
      "eccentricity": 0.00013578,
      "inclination_deg": 43.003,
      "raan_deg": 325.0327,
      "arg_perigee_deg": 262.6166,
      "mean_anomaly_deg": 97.4531,
      "mean_motion_rev_day": 15.27566072
    },
    {
      "epoch": "2026-04-01T00:23:29.454432Z",
      "apogee_km": 484.82411260579465,
      "perigee_km": 481.0914026138644,
      "latitude_deg": 1.333012399549608e-05,
      "longitude_deg": 124.23599567517113,
      "height_km": 483.06156669708315,
      "semi_major_axis_km": 6861.09475760983,
      "eccentricity": 0.00027202,
      "inclination_deg": 43.0043,
      "raan_deg": 319.4941,
      "arg_perigee_deg": 259.9488,
      "mean_anomaly_deg": 100.1057,
      "mean_motion_rev_day": 15.27610504
    },
    {
      "epoch": "2026-04-02T15:37:24.487104Z",
      "apogee_km": 483.50778234724294,
      "perigee_km": 482.44403540185067,
      "latitude_deg": 2.4552504462298148e-05,
      "longitude_deg": -115.08839256879084,
      "height_km": 482.476163612953,
      "semi_major_axis_km": 6861.1129088745465,
      "eccentricity": 7.752e-05,
      "inclination_deg": 43.0021,
      "raan_deg": 310.2602,
      "arg_perigee_deg": 58.9022,
      "mean_anomaly_deg": 301.1906,
      "mean_motion_rev_day": 15.27604442
    }
  ]
}